[Satellite]
VERSION=1.1
NAME=CZ-6A DEB
NICKNAME=CZ-6A DEB
TLE1=1 54491U 22151HT  22342.46682811  .00000278  00000+0  18540-3 0  9990
TLE2=2 54491  98.9142 347.5095 0109653 302.2615  56.7965 14.06251048  3174
STATUS=0
